PANDORA
1 67395U 80229J   26059.58424769  .00000000  00000-0  37770-3 0    08
2 67395  97.8017  59.9525 0006449 118.8515 336.8168 14.87848735    01
